NORAD_CAT_ID,OBJECT_NAME,OBJECT_TYPE,EPOCH,MEAN_MOTION,ECCENTRICITY,INCLINATION,RA_OF_ASC_NODE,ARG_OF_PERICENTER,MEAN_ANOMALY,BSTAR,MEAN_MOTION_DOT,MEAN_MOTION_DDOT,TLE_LINE0,TLE_LINE1,TLE_LINE2,SEMIMAJOR_AXIS,PERIOD,APOGEE,PERIGEE,DECAYED
56810.0,STARLINK-6031,PAYLOAD,2023-08-22 07:47:12,15.69919251,0.0002959,69.9975,179.7876,275.9888,84.097,-7.9538e-07,-3.08e-06,0.0,0 STARLINK-6031,1 56810U 23078AV  23234.32444795 -.00000308  00000-0 -79538-6 0  9993,2 56810  69.9975 179.7876 0002959 275.9888  84.0970 15.69919251 13341,6737.265,91.724,361.124,357.136,0.0
56810.0,STARLINK-6031,PAYLOAD,2023-08-22 23:04:42,15.69925135,0.0003454,69.9969,177.9947,268.8506,91.2294,1.3282e-05,1.385e-05,0.0,0 STARLINK-6031,1 56810U 23078AV  23234.96160696  .00001385  00000-0  13282-4 0  9994,2 56810  69.9969 177.9947 0003454 268.8506  91.2294 15.69925135 13440,6737.248,91.724,361.44,356.786,0.0
56810.0,STARLINK-6031,PAYLOAD,2023-08-24 05:39:46,15.69912919,0.0003039,69.9986,174.414,263.1185,96.9665,-2.9882e-06,-5.72e-06,0.0,0 STARLINK-6031,1 56810U 23078AV  23236.23595190 -.00000572  00000-0 -29882-5 0  9990,2 56810  69.9986 174.4140 0003039 263.1185  96.9665 15.69912919 13389,6737.283,91.725,361.196,357.101,0.0
56810.0,STARLINK-6031,PAYLOAD,2023-08-24 22:29:01,15.69930211,0.0003504,69.9976,172.444,274.1101,85.9694,1.0628e-05,1.066e-05,0.0,0 STARLINK-6031,1 56810U 23078AV  23236.93682365  .00001066  00000-0  10628-4 0  9992,2 56810  69.9976 172.4440 0003504 274.1101  85.9694 15.69930211 13752,6737.234,91.724,361.459,356.738,0.0
56810.0,STARLINK-6031,PAYLOAD,2023-08-25 22:57:04,15.69913865,0.0003535,69.9967,169.5757,273.7142,86.365,2.1194e-05,2.335e-05,0.0,0 STARLINK-6031,1 56810U 23078AV  23237.95629804  .00002335  00000-0  21194-4 0  9994,2 56810  69.9967 169.5757 0003535 273.7142  86.3650 15.69913865 13915,6737.28,91.725,361.527,356.764,0.0
56810.0,STARLINK-6031,PAYLOAD,2023-08-26 05:04:04,15.6991627,0.0003188,69.997,168.8588,267.7063,92.3768,2.6563e-05,2.981e-05,0.0,0 STARLINK-6031,1 56810U 23078AV  23238.21116348  .00002981  00000-0  26563-4 0  9990,2 56810  69.9970 168.8588 0003188 267.7063  92.3768 15.69916270 13697,6737.274,91.725,361.286,356.991,0.0
56810.0,STARLINK-6031,PAYLOAD,2023-08-26 18:49:50,15.69923637,0.000312,69.9979,167.248,263.516,96.5681,1.2052e-05,1.237e-05,0.0,0 STARLINK-6031,1 56810U 23078AV  23238.78461207  .00001237  00000-0  12052-4 0  9990,2 56810  69.9979 167.2480 0003120 263.5160  96.5681 15.69923637 14043,6737.252,91.724,361.219,357.015,0.0
56810.0,STARLINK-6031,PAYLOAD,2023-08-26 20:21:35,15.69924954,0.0003088,69.9984,167.07,261.9018,98.1827,1.3072e-05,1.359e-05,0.0,0 STARLINK-6031,1 56810U 23078AV  23238.84832772  .00001359  00000-0  13072-4 0  9994,2 56810  69.9984 167.0700 0003088 261.9018  98.1827 15.69924954 13793,6737.249,91.724,361.194,357.033,0.0
56810.0,STARLINK-6031,PAYLOAD,2023-08-27 07:03:51,15.69923309,0.0003245,69.9978,165.8152,266.7249,93.3575,9.8436e-06,9.71e-06,0.0,0 STARLINK-6031,1 56810U 23078AV  23239.29434655  .00000971  00000-0  98436-5 0  9999,2 56810  69.9978 165.8152 0003245 266.7249  93.3575 15.69923309 13865,6737.253,91.724,361.305,356.932,0.0
56810.0,STARLINK-6031,PAYLOAD,2023-08-27 19:17:52,15.69920956,0.0003259,69.9978,164.382,267.2482,92.8341,1.894e-05,2.065e-05,0.0,0 STARLINK-6031,1 56810U 23078AV  23239.80407899  .00002065  00000-0  18940-4 0  9993,2 56810  69.9978 164.3820 0003259 267.2482  92.8341 15.69920956 14200,6737.26,91.724,361.321,356.929,0.0
56810.0,STARLINK-6031,PAYLOAD,2023-08-27 20:49:36,15.69934895,0.0003456,69.9979,164.2031,268.3114,91.7685,2.1229e-05,2.342e-05,0.0,0 STARLINK-6031,1 56810U 23078AV  23239.86778754  .00002342  00000-0  21229-4 0  9992,2 56810  69.9979 164.2031 0003456 268.3114  91.7685 15.69934895 13954,6737.22,91.724,361.414,356.757,0.0
56810.0,STARLINK-6031,PAYLOAD,2023-08-27 22:21:23,15.69915408,0.0003304,69.9978,164.024,267.0257,93.056,-1.1559e-06,-3.52e-06,0.0,0 STARLINK-6031,1 56810U 23078AV  23239.93152001 -.00000352  00000-0 -11559-5 0  9998,2 56810  69.9978 164.0240 0003304 267.0257  93.0560 15.69915408 14226,6737.276,91.725,361.367,356.915,0.0
56810.0,STARLINK-6031,PAYLOAD,2023-08-28 07:31:53,15.69925842,0.0003437,69.9977,162.9491,267.0259,93.0543,1.0603e-05,1.062e-05,0.0,0 STARLINK-6031,1 56810U 23078AV  23240.31381200  .00001062  00000-0  10603-4 0  9992,2 56810  69.9977 162.9491 0003437 267.0259  93.0543 15.69925842 14289,6737.246,91.724,361.427,356.796,0.0
56810.0,STARLINK-6031,PAYLOAD,2023-08-28 12:07:08,15.69926989,0.0003522,69.9974,162.4124,270.9925,89.0867,1.0482e-05,1.048e-05,0.0,0 STARLINK-6031,1 56810U 23078AV  23240.50496157  .00001048  00000-0  10482-4 0  9990,2 56810  69.9974 162.4124 0003522 270.9925  89.0867 15.69926989 14054,6737.243,91.724,361.481,356.735,0.0
56810.0,STARLINK-6031,PAYLOAD,2023-08-29 03:24:40,15.69921621,0.0003575,69.9977,160.6206,271.8859,88.1927,-3.0631e-06,-5.81e-06,0.0,0 STARLINK-6031,1 56810U 23078AV  23241.14213539 -.00000581  00000-0 -30631-5 0  9994,2 56810  69.9977 160.6206 0003575 271.8859  88.1927 15.69921621 14417,6737.258,91.724,361.532,356.715,0.0
56810.0,STARLINK-6031,PAYLOAD,2023-08-29 06:28:10,15.69921753,0.0003206,69.9995,160.2645,264.576,95.507,4.4232e-06,3.19e-06,0.0,0 STARLINK-6031,1 56810U 23078AV  23241.26956764  .00000319  00000-0  44232-5 0  9990,2 56810  69.9995 160.2645 0003206 264.5760  95.5070 15.69921753 14171,6737.258,91.724,361.283,356.963,0.0
56810.0,STARLINK-6031,PAYLOAD,2023-08-30 03:52:42,15.69929574,0.0003307,69.998,157.7562,280.4904,79.5919,-2.0192e-06,-4.56e-06,0.0,0 STARLINK-6031,1 56810U 23078AV  23242.16159970 -.00000456  00000-0 -20192-5 0  9997,2 56810  69.9980 157.7562 0003307 280.4904  79.5919 15.69929574 14570,6737.235,91.724,361.328,356.872,0.0
56810.0,STARLINK-6031,PAYLOAD,2023-08-30 11:31:28,15.6992171,0.0002934,69.9979,156.8595,280.4594,79.6271,8.3841e-06,7.96e-06,0.0,0 STARLINK-6031,1 56810U 23078AV  23242.48018771  .00000796  00000-0  83841-5 0  9990,2 56810  69.9979 156.8595 0002934 280.4594  79.6271 15.69921710 14626,6737.258,91.724,361.1,357.146,0.0
56810.0,STARLINK-6031,PAYLOAD,2023-08-31 05:52:30,15.69910232,0.0002894,69.9997,154.7139,265.4084,94.6781,7.1148e-06,6.43e-06,0.0,0 STARLINK-6031,1 56810U 23078AV  23243.24479343  .00000643  00000-0  71148-5 0  9999,2 56810  69.9997 154.7139 0002894 265.4084  94.6781 15.69910232 14742,6737.291,91.725,361.106,357.206,0.0
56810.0,STARLINK-6031,PAYLOAD,2023-08-31 18:06:34,15.69925336,0.0002727,69.997,153.2826,267.268,92.8204,1.9614e-05,2.146e-05,0.0,0 STARLINK-6031,1 56810U 23078AV  23243.75456093  .00002146  00000-0  19614-4 0  9991,2 56810  69.9970 153.2826 0002727 267.2680  92.8204 15.69925336 14827,6737.248,91.724,360.95,357.275,0.0
56810.0,STARLINK-6031,PAYLOAD,2023-09-01 03:17:12,15.69803155,0.0003962,69.9953,152.2068,258.0167,102.0584,-7.9863e-05,-9.758e-05,0.0,0 STARLINK-6031,1 56810U 23078AV  23244.13694933 -.00009758  00000-0 -79863-4 0  9991,2 56810  69.9953 152.2068 0003962 258.0167 102.0584 15.69803155 14880,6737.597,91.731,362.132,356.793,0.0
56810.0,STARLINK-6031,PAYLOAD,2023-09-01 10:55:51,15.69846061,0.0001666,69.9968,151.3106,257.8732,102.2277,-3.036e-05,-3.848e-05,0.0,0 STARLINK-6031,1 56810U 23078AV  23244.45546174 -.00003848  00000-0 -30360-4 0  9992,2 56810  69.9968 151.3106 0001666 257.8732 102.2277 15.69846061 14933,6737.474,91.729,360.462,358.217,0.0
56810.0,STARLINK-6031,PAYLOAD,2023-09-01 21:38:17,15.69714985,0.000439,69.9947,150.0558,245.4819,114.5919,-0.00020438,-0.00024511,0.0,0 STARLINK-6031,1 56810U 23078AV  23244.90159551 -.00024511  00000-0 -20438-3 0  9995,2 56810  69.9947 150.0558 0004390 245.4819 114.5919 15.69714985 15000,6737.849,91.736,362.672,356.757,0.0
56810.0,STARLINK-6031,PAYLOAD,2023-09-03 04:13:04,15.69978547,0.0003206,69.9981,146.4693,268.287,91.7959,-5.0278e-05,-6.267e-05,0.0,0 STARLINK-6031,1 56810U 23078AV  23246.17574118 -.00006267  00000-0 -50278-4 0  9990,2 56810  69.9981 146.4693 0003206 268.2870  91.7959 15.69978547 15200,6737.095,91.721,361.12,356.8,0.0
56810.0,STARLINK-6031,PAYLOAD,2023-09-03 10:20:06,15.69917266,0.0003479,69.9968,145.7521,268.7406,91.3391,-1.0606e-06,-3.4e-06,0.0,0 STARLINK-6031,1 56810U 23078AV  23246.43062510 -.00000340  00000-0 -10606-5 0  9995,2 56810  69.9968 145.7521 0003479 268.7406  91.3391 15.69917266 14980,6737.271,91.725,361.48,356.792,0.0
56810.0,STARLINK-6031,PAYLOAD,2023-09-03 21:00:59,15.71057946,0.0009325,69.9966,144.4939,281.4395,78.5754,0.0012437,0.00159866,0.0,0 STARLINK-6031,1 56810U 23078AV  23246.87568493  .00159866  00000-0  12437-2 0  9991,2 56810  69.9966 144.4939 0009325 281.4395  78.5754 15.71057946 15313,6734.009,91.658,362.154,349.595,0.0
56810.0,STARLINK-6031,PAYLOAD,2023-09-04 12:00:00,15.69736212,0.0003306,69.9982,142.7449,262.9401,19.1793,-0.0083697,-0.00897912,0.0,0 STARLINK-6031,1 56810U 23078AV  23247.50001157 -.00897912  00000-0 -83697-2 0  9990,2 56810  69.9982 142.7449 0003306 262.9401  19.1793 15.69736212 15415,6737.789,91.735,361.881,357.426,0.0
56810.0,STARLINK-6031,PAYLOAD,2023-09-04 14:00:01,15.6953522,0.0003374,69.9981,142.5107,263.0584,129.826,-0.0077474,-0.00831018,0.0,0 STARLINK-6031,1 56810U 23078AV  23247.58334491 -.00831018  00000-0 -77474-2 0  9999,2 56810  69.9981 142.5107 0003374 263.0584 129.8260 15.69535220  5909,6738.364,91.747,362.502,357.955,0.0
56810.0,STARLINK-6031,PAYLOAD,2023-09-04 16:55:22,15.69745558,0.0003119,69.9963,142.1696,252.8736,107.2119,-0.00019098,-0.00022944,0.0,0 STARLINK-6031,1 56810U 23078AV  23247.70511813 -.00022944  00000-0 -19098-3 0  9997,2 56810  69.9963 142.1696 0003119 252.8736 107.2119 15.69745558 15440,6737.762,91.735,361.729,357.525,0.0
56810.0,STARLINK-6031,PAYLOAD,2023-09-05 03:37:42,15.69728347,0.0003266,69.9961,140.9155,250.4093,109.675,-0.00019069,-0.00022894,0.0,0 STARLINK-6031,1 56810U 23078AV  23248.15118955 -.00022894  00000-0 -19069-3 0  9999,2 56810  69.9961 140.9155 0003266 250.4093 109.6750 15.69728347 15250,6737.811,91.736,361.877,357.476,0.0
